{
    "CCSDS_OMM_VERS": "3.0",
    "COMMENT": "GENERATED VIA SPACE-TRACK.ORG API",
    "CREATION_DATE": "2025-11-23T14:26:32",
    "ORIGINATOR": "18 SPCS",
    "OBJECT_NAME": "GALILEO 10 (206)",
    "OBJECT_ID": "2015-045B",
    "CENTER_NAME": "EARTH",
    "REF_FRAME": "TEME",
    "TIME_SYSTEM": "UTC",
    "MEAN_ELEMENT_THEORY": "SGP4",
    "EPOCH": "2025-11-22T23:30:43.774848",
    "MEAN_MOTION": "1.70473086",
    "ECCENTRICITY": "0.00035500",
    "INCLINATION": "55.0097",
    "RA_OF_ASC_NODE": "227.2995",
    "ARG_OF_PERICENTER": "30.7123",
    "MEAN_ANOMALY": "329.3906",
    "EPHEMERIS_TYPE": "0",
    "CLASSIFICATION_TYPE": "U",
    "NORAD_CAT_ID": "40890",
    "ELEMENT_SET_NO": "999",
    "REV_AT_EPOCH": "6352",
    "BSTAR": "0.00000000000000",
    "MEAN_MOTION_DOT": "0.00000027",
    "MEAN_MOTION_DDOT": "0.0000000000000",
    "SEMIMAJOR_AXIS": "29600.426",
    "PERIOD": "844.708",
    "APOAPSIS": "23232.799",
    "PERIAPSIS": "23211.783",
    "OBJECT_TYPE": "PAYLOAD",
    "RCS_SIZE": "LARGE",
    "COUNTRY_CODE": "ESA",
    "LAUNCH_DATE": "2015-09-11",
    "SITE": "FRGUI",
    "DECAY_DATE": null,
    "FILE": "4895623",
    "GP_ID": "303302401",
    "TLE_LINE0": "0 GALILEO 10 (206)",
    "TLE_LINE1": "1 40890U 15045B   25326.97967332  .00000027  00000-0  00000+0 0  9998",
    "TLE_LINE2": "2 40890  55.0097 227.2995 0003550  30.7123 329.3906  1.70473086 63528"
}